[{"OBJECT_NAME":"STARLINK-3388","OBJECT_ID":"2022-005AD","EPOCH":"2026-03-09T20:54:22.398912","MEAN_MOTION":15.08832205,"ECCENTRICITY":0.00013149,"INCLINATION":53.2187,"RA_OF_ASC_NODE":298.3097,"ARG_OF_PERICENTER":100.2983,"MEAN_ANOMALY":259.8157,"EPHEMERIS_TYPE":0,"CLASSIFICATION_TYPE":"U","NORAD_CAT_ID":51131,"ELEMENT_SET_NO":999,"REV_AT_EPOCH":22875,"BSTAR":2.1696055e-5,"MEAN_MOTION_DOT":5.7e-7,"MEAN_MOTION_DDOT":0},{"OBJECT_NAME":"CZ-4B DEB","OBJECT_ID":"2004-035N","EPOCH":"2026-03-08T07:19:22.074240","MEAN_MOTION":15.17712882,"ECCENTRICITY":0.00700404,"INCLINATION":97.867,"RA_OF_ASC_NODE":11.9774,"ARG_OF_PERICENTER":119.6038,"MEAN_ANOMALY":241.2197,"EPHEMERIS_TYPE":0,"CLASSIFICATION_TYPE":"U","NORAD_CAT_ID":35270,"ELEMENT_SET_NO":999,"REV_AT_EPOCH":13623,"BSTAR":0.0033008842,"MEAN_MOTION_DOT":0.00071474,"MEAN_MOTION_DDOT":0}]
